{
  "type": "FeatureCollection",
  "features": [
    {
      "type": "Feature",
      "properties": {
        "norad_id": 34088,
        "name": "IRIDIUM 33 DEB",
        "group": "iridium-33-debris",
        "lat": -29.561384121817554,
        "lon": 22.809078729296495,
        "alt_km": 602.674273117168,
        "timestamp": "2025-12-25T11:37:44.824107+00:00",
        "meta_object_name": "IRIDIUM 33 DEB",
        "meta_object_id": "1997-051CX",
        "meta_epoch": "2025-12-25T00:46:48.781920",
        "meta_mean_motion": 14.91924983,
        "meta_eccentricity": 0.0007024,
        "meta_inclination": 86.3841,
        "meta_ra_of_asc_node": 25.0724,
        "meta_arg_of_pericenter": 138.3667,
        "meta_mean_anomaly": 285.8746,
        "meta_ephemeris_type": 0,
        "meta_classification_type": "U",
        "meta_norad_cat_id": 34088,
        "meta_element_set_no": 999,
        "meta_rev_at_epoch": 88925,
        "meta_bstar": 0.0025489,
        "meta_mean_motion_dot": 0.00025881,
        "meta_mean_motion_ddot": 0,
        "tle_line1": "1 34088U 97051CX  25359.03250905  .00025881  00000+0  25489-2 0  9996",
        "tle_line2": "2 34088  86.3841  25.0724 0007024 138.3667 285.8746 14.91924983889254"
      },
      "geometry": {
        "type": "Point",
        "coordinates": [
          22.809078729296495,
          -29.561384121817554
        ]
      }
    },
    {
      "type": "Feature",
      "properties": {
        "norad_id": 34091,
        "name": "IRIDIUM 33 DEB",
        "group": "iridium-33-debris",
        "lat": 84.57385635674534,
        "lon": 103.33077762047289,
        "alt_km": 636.0494909864019,
        "timestamp": "2025-12-25T11:37:44.824117+00:00",
        "meta_object_name": "IRIDIUM 33 DEB",
        "meta_object_id": "1997-051DA",
        "meta_epoch": "2025-12-24T22:16:58.173312",
        "meta_mean_motion": 14.82700275,
        "meta_eccentricity": 0.003435,
        "meta_inclination": 86.342,
        "meta_ra_of_asc_node": 61.2483,
        "meta_arg_of_pericenter": 249.729,
        "meta_mean_anomaly": 110.024,
        "meta_ephemeris_type": 0,
        "meta_classification_type": "U",
        "meta_norad_cat_id": 34091,
        "meta_element_set_no": 999,
        "meta_rev_at_epoch": 88047,
        "meta_bstar": 0.0051867,
        "meta_mean_motion_dot": 0.00042498,
        "meta_mean_motion_ddot": 0,
        "tle_line1": "1 34091U 97051DA  25358.92845108  .00042498  00000+0  51867-2 0  9994",
        "tle_line2": "2 34091  86.3420  61.2483 0034350 249.7290 110.0240 14.82700275880475"
      },
      "geometry": {
        "type": "Point",
        "coordinates": [
          103.33077762047289,
          84.57385635674534
        ]
      }
    },
    {
      "type": "Feature",
      "properties": {
        "norad_id": 34097,
        "name": "IRIDIUM 33 DEB",
        "group": "iridium-33-debris",
        "lat": -39.47156819427486,
        "lon": -7.355824763644201,
        "alt_km": 723.7803434952093,
        "timestamp": "2025-12-25T11:37:44.824128+00:00",
        "meta_object_name": "IRIDIUM 33 DEB",
        "meta_object_id": "1997-051DG",
        "meta_epoch": "2025-12-25T00:05:41.420832",
        "meta_mean_motion": 14.34875051,
        "meta_eccentricity": 0.0081414,
        "meta_inclination": 86.2004,
        "meta_ra_of_asc_node": 355.9934,
        "meta_arg_of_pericenter": 322.038,
        "meta_mean_anomaly": 37.5093,
        "meta_ephemeris_type": 0,
        "meta_classification_type": "U",
        "meta_norad_cat_id": 34097,
        "meta_element_set_no": 999,
        "meta_rev_at_epoch": 87295,
        "meta_bstar": 0.0016722,
        "meta_mean_motion_dot": 4.948e-05,
        "meta_mean_motion_ddot": 0,
        "tle_line1": "1 34097U 97051DG  25359.00395163  .00004948  00000+0  16722-2 0  9990",
        "tle_line2": "2 34097  86.2004 355.9934 0081414 322.0380  37.5093 14.34875051872955"
      },
      "geometry": {
        "type": "Point",
        "coordinates": [
          -7.355824763644201,
          -39.47156819427486
        ]
      }
    },
    {
      "type": "Feature",
      "properties": {
        "norad_id": 34145,
        "name": "IRIDIUM 33 DEB",
        "group": "iridium-33-debris",
        "lat": -33.901058515775354,
        "lon": 149.40168576611998,
        "alt_km": 794.3285173691957,
        "timestamp": "2025-12-25T11:37:44.824138+00:00",
        "meta_object_name": "IRIDIUM 33 DEB",
        "meta_object_id": "1997-051DY",
        "meta_epoch": "2025-12-23T08:41:39.975936",
        "meta_mean_motion": 14.42361739,
        "meta_eccentricity": 0.00555944,
        "meta_inclination": 86.2126,
        "meta_ra_of_asc_node": 327.7951,
        "meta_arg_of_pericenter": 60.0799,
        "meta_mean_anomaly": 300.5906,
        "meta_ephemeris_type": 0,
        "meta_classification_type": "U",
        "meta_norad_cat_id": 34145,
        "meta_element_set_no": 999,
        "meta_rev_at_epoch": 87791,
        "meta_bstar": 0.0012419771,
        "meta_mean_motion_dot": 4.2e-05,
        "meta_mean_motion_ddot": 0,
        "tle_line1": "1 34145U 97051DY  25357.36226824  .00004200  00000+0  12420-2 0  9990",
        "tle_line2": "2 34145  86.2126 327.7951 0055594  60.0799 300.5906 14.42361739877912"
      },
      "geometry": {
        "type": "Point",
        "coordinates": [
          149.40168576611998,
          -33.901058515775354
        ]
      }
    },
    {
      "type": "Feature",
      "properties": {
        "norad_id": 34146,
        "name": "IRIDIUM 33 DEB",
        "group": "iridium-33-debris",
        "lat": 19.102933372030602,
        "lon": 162.87978349683854,
        "alt_km": 710.5119770395777,
        "timestamp": "2025-12-25T11:37:44.824149+00:00",
        "meta_object_name": "IRIDIUM 33 DEB",
        "meta_object_id": "1997-051DZ",
        "meta_epoch": "2025-12-24T23:34:34.582944",
        "meta_mean_motion": 14.49125914,
        "meta_eccentricity": 0.0026876,
        "meta_inclination": 86.2842,
        "meta_ra_of_asc_node": 344.3912,
        "meta_arg_of_pericenter": 179.4306,
        "meta_mean_anomaly": 243.1645,
        "meta_ephemeris_type": 0,
        "meta_classification_type": "U",
        "meta_norad_cat_id": 34146,
        "meta_element_set_no": 999,
        "meta_rev_at_epoch": 88284,
        "meta_bstar": 0.00094319,
        "meta_mean_motion_dot": 3.621e-05,
        "meta_mean_motion_ddot": 0,
        "tle_line1": "1 34146U 97051DZ  25358.98234471  .00003621  00000+0  94319-3 0  9991",
        "tle_line2": "2 34146  86.2842 344.3912 0026876 179.4306 243.1645 14.49125914882840"
      },
      "geometry": {
        "type": "Point",
        "coordinates": [
          162.87978349683854,
          19.102933372030602
        ]
      }
    },
    {
      "type": "Feature",
      "properties": {
        "norad_id": 34159,
        "name": "IRIDIUM 33 DEB",
        "group": "iridium-33-debris",
        "lat": 68.94860405128456,
        "lon": -146.7425071848408,
        "alt_km": 769.3213438858311,
        "timestamp": "2025-12-25T11:37:44.824159+00:00",
        "meta_object_name": "IRIDIUM 33 DEB",
        "meta_object_id": "1997-051EN",
        "meta_epoch": "2025-12-25T02:46:00.543648",
        "meta_mean_motion": 14.38523185,
        "meta_eccentricity": 0.0026227,
        "meta_inclination": 86.3491,
        "meta_ra_of_asc_node": 42.9636,
        "meta_arg_of_pericenter": 244.0886,
        "meta_mean_anomaly": 115.7609,
        "meta_ephemeris_type": 0,
        "meta_classification_type": "U",
        "meta_norad_cat_id": 34159,
        "meta_element_set_no": 999,
        "meta_rev_at_epoch": 88137,
        "meta_bstar": 0.00039008,
        "meta_mean_motion_dot": 1.216e-05,
        "meta_mean_motion_ddot": 0,
        "tle_line1": "1 34159U 97051EN  25359.11528407  .00001216  00000+0  39008-3 0  9998",
        "tle_line2": "2 34159  86.3491  42.9636 0026227 244.0886 115.7609 14.38523185881372"
      },
      "geometry": {
        "type": "Point",
        "coordinates": [
          -146.7425071848408,
          68.94860405128456
        ]
      }
    },
    {
      "type": "Feature",
      "properties": {
        "norad_id": 34350,
        "name": "IRIDIUM 33 DEB",
        "group": "iridium-33-debris",
        "lat": 83.40017492413942,
        "lon": 143.55575169935355,
        "alt_km": 716.5075527154868,
        "timestamp": "2025-12-25T11:37:44.824170+00:00",
        "meta_object_name": "IRIDIUM 33 DEB",
        "meta_object_id": "1997-051ES",
        "meta_epoch": "2025-12-24T23:49:25.823136",
        "meta_mean_motion": 14.45414925,
        "meta_eccentricity": 0.0023509,
        "meta_inclination": 86.3273,
        "meta_ra_of_asc_node": 357.4897,
        "meta_arg_of_pericenter": 97.7488,
        "meta_mean_anomaly": 319.833,
        "meta_ephemeris_type": 0,
        "meta_classification_type": "U",
        "meta_norad_cat_id": 34350,
        "meta_element_set_no": 999,
        "meta_rev_at_epoch": 88470,
        "meta_bstar": 0.00034315,
        "meta_mean_motion_dot": 1.231e-05,
        "meta_mean_motion_ddot": 0,
        "tle_line1": "1 34350U 97051ES  25358.99265999  .00001231  00000+0  34315-3 0  9993",
        "tle_line2": "2 34350  86.3273 357.4897 0023509  97.7488 319.8330 14.45414925884704"
      },
      "geometry": {
        "type": "Point",
        "coordinates": [
          143.55575169935355,
          83.40017492413942
        ]
      }
    }
  ]
}